{
  "type": "FeatureCollection",
  "features": [
    {
      "type": "Feature",
      "properties": {
        "norad_id": 34003,
        "name": "COSMOS 2251 DEB",
        "group": "cosmos-2251-debris",
        "lat": 71.2580717151165,
        "lon": -8.595110414013075,
        "alt_km": 771.5152171825112,
        "timestamp": "2025-12-07T09:35:10.182486+00:00",
        "meta_object_name": "COSMOS 2251 DEB",
        "meta_object_id": "1993-036GN",
        "meta_epoch": "2025-12-06T22:48:44.721504",
        "meta_mean_motion": 13.84099508,
        "meta_eccentricity": 0.02738921,
        "meta_inclination": 74.0787,
        "meta_ra_of_asc_node": 294.8872,
        "meta_arg_of_pericenter": 48.2566,
        "meta_mean_anomaly": 314.1626,
        "meta_ephemeris_type": 0,
        "meta_classification_type": "U",
        "meta_norad_cat_id": 34003,
        "meta_element_set_no": 999,
        "meta_rev_at_epoch": 84345,
        "meta_bstar": 0.0030737359,
        "meta_mean_motion_dot": 4.555e-05,
        "meta_mean_motion_ddot": 0,
        "tle_line1": "1 34003U 93036GN  25340.95051761  .00004555  00000+0  30737-2 0  9999",
        "tle_line2": "2 34003  74.0787 294.8872 0273892  48.2566 314.1626 13.84099508843451"
      },
      "geometry": {
        "type": "Point",
        "coordinates": [
          -8.595110414013075,
          71.2580717151165
        ]
      }
    },
    {
      "type": "Feature",
      "properties": {
        "norad_id": 34004,
        "name": "COSMOS 2251 DEB",
        "group": "cosmos-2251-debris",
        "lat": -73.98352973900502,
        "lon": -122.59800687117696,
        "alt_km": 725.9721893075239,
        "timestamp": "2025-12-07T09:35:10.182496+00:00",
        "meta_object_name": "COSMOS 2251 DEB",
        "meta_object_id": "1993-036GP",
        "meta_epoch": "2025-12-06T09:08:13.509024",
        "meta_mean_motion": 14.48910835,
        "meta_eccentricity": 0.00332553,
        "meta_inclination": 74.0358,
        "meta_ra_of_asc_node": 325.0323,
        "meta_arg_of_pericenter": 338.1291,
        "meta_mean_anomaly": 21.8447,
        "meta_ephemeris_type": 0,
        "meta_classification_type": "U",
        "meta_norad_cat_id": 34004,
        "meta_element_set_no": 999,
        "meta_rev_at_epoch": 87938,
        "meta_bstar": 0.0024975664,
        "meta_mean_motion_dot": 9.506e-05,
        "meta_mean_motion_ddot": 0,
        "tle_line1": "1 34004U 93036GP  25340.38071191  .00009506  00000+0  24976-2 0  9995",
        "tle_line2": "2 34004  74.0358 325.0323 0033255 338.1291  21.8447 14.48910835879387"
      },
      "geometry": {
        "type": "Point",
        "coordinates": [
          -122.59800687117696,
          -73.98352973900502
        ]
      }
    },
    {
      "type": "Feature",
      "properties": {
        "norad_id": 34005,
        "name": "COSMOS 2251 DEB",
        "group": "cosmos-2251-debris",
        "lat": -8.10419842451061,
        "lon": -138.8209083312723,
        "alt_km": 746.5908853829897,
        "timestamp": "2025-12-07T09:35:10.182507+00:00",
        "meta_object_name": "COSMOS 2251 DEB",
        "meta_object_id": "1993-036GQ",
        "meta_epoch": "2025-12-06T18:55:20.796960",
        "meta_mean_motion": 14.40297909,
        "meta_eccentricity": 0.0020617,
        "meta_inclination": 74.045,
        "meta_ra_of_asc_node": 224.6422,
        "meta_arg_of_pericenter": 343.899,
        "meta_mean_anomaly": 81.0089,
        "meta_ephemeris_type": 0,
        "meta_classification_type": "U",
        "meta_norad_cat_id": 34005,
        "meta_element_set_no": 999,
        "meta_rev_at_epoch": 88293,
        "meta_bstar": 0.00021466968,
        "meta_mean_motion_dot": 6.55e-06,
        "meta_mean_motion_ddot": 0,
        "tle_line1": "1 34005U 93036GQ  25340.78843515  .00000655  00000+0  21467-3 0  9996",
        "tle_line2": "2 34005  74.0450 224.6422 0020617 343.8990  81.0089 14.40297909882939"
      },
      "geometry": {
        "type": "Point",
        "coordinates": [
          -138.8209083312723,
          -8.10419842451061
        ]
      }
    },
    {
      "type": "Feature",
      "properties": {
        "norad_id": 34006,
        "name": "COSMOS 2251 DEB",
        "group": "cosmos-2251-debris",
        "lat": -59.154801268110425,
        "lon": 125.42715648977594,
        "alt_km": 599.8720065819007,
        "timestamp": "2025-12-07T09:35:10.182517+00:00",
        "meta_object_name": "COSMOS 2251 DEB",
        "meta_object_id": "1993-036GR",
        "meta_epoch": "2025-12-06T23:10:46.485120",
        "meta_mean_motion": 14.94132445,
        "meta_eccentricity": 0.00118934,
        "meta_inclination": 74.0532,
        "meta_ra_of_asc_node": 154.9063,
        "meta_arg_of_pericenter": 108.083,
        "meta_mean_anomaly": 17.3836,
        "meta_ephemeris_type": 0,
        "meta_classification_type": "U",
        "meta_norad_cat_id": 34006,
        "meta_element_set_no": 999,
        "meta_rev_at_epoch": 88582,
        "meta_bstar": 0.004809689,
        "meta_mean_motion_dot": 0.00051878,
        "meta_mean_motion_ddot": 0,
        "tle_line1": "1 34006U 93036GR  25340.96581580  .00051878  00000+0  48097-2 0  9998",
        "tle_line2": "2 34006  74.0532 154.9063 0011893 108.0830  17.3836 14.94132445885822"
      },
      "geometry": {
        "type": "Point",
        "coordinates": [
          125.42715648977594,
          -59.154801268110425
        ]
      }
    },
    {
      "type": "Feature",
      "properties": {
        "norad_id": 34007,
        "name": "COSMOS 2251 DEB",
        "group": "cosmos-2251-debris",
        "lat": 73.04181949026278,
        "lon": 67.19164764183424,
        "alt_km": 650.099468046551,
        "timestamp": "2025-12-07T09:35:10.182527+00:00",
        "meta_object_name": "COSMOS 2251 DEB",
        "meta_object_id": "1993-036GS",
        "meta_epoch": "2025-12-06T11:53:35.088864",
        "meta_mean_motion": 14.64721791,
        "meta_eccentricity": 0.00445765,
        "meta_inclination": 74.0194,
        "meta_ra_of_asc_node": 358.9162,
        "meta_arg_of_pericenter": 135.8494,
        "meta_mean_anomaly": 224.6247,
        "meta_ephemeris_type": 0,
        "meta_classification_type": "U",
        "meta_norad_cat_id": 34007,
        "meta_element_set_no": 999,
        "meta_rev_at_epoch": 88988,
        "meta_bstar": 0.0012293927,
        "meta_mean_motion_dot": 6.618e-05,
        "meta_mean_motion_ddot": 0,
        "tle_line1": "1 34007U 93036GS  25340.49554501  .00006618  00000+0  12294-2 0  9992",
        "tle_line2": "2 34007  74.0194 358.9162 0044576 135.8494 224.6247 14.64721791889885"
      },
      "geometry": {
        "type": "Point",
        "coordinates": [
          67.19164764183424,
          73.04181949026278
        ]
      }
    },
    {
      "type": "Feature",
      "properties": {
        "norad_id": 34008,
        "name": "COSMOS 2251 DEB",
        "group": "cosmos-2251-debris",
        "lat": 34.50213313769514,
        "lon": -8.372348454499855,
        "alt_km": 769.8975299229642,
        "timestamp": "2025-12-07T09:35:10.182537+00:00",
        "meta_object_name": "COSMOS 2251 DEB",
        "meta_object_id": "1993-036GT",
        "meta_epoch": "2025-12-06T19:09:16.911360",
        "meta_mean_motion": 14.33139905,
        "meta_eccentricity": 0.00241043,
        "meta_inclination": 74.0341,
        "meta_ra_of_asc_node": 341.3777,
        "meta_arg_of_pericenter": 337.7332,
        "meta_mean_anomaly": 197.1131,
        "meta_ephemeris_type": 0,
        "meta_classification_type": "U",
        "meta_norad_cat_id": 34008,
        "meta_element_set_no": 999,
        "meta_rev_at_epoch": 87879,
        "meta_bstar": 0.00022517166,
        "meta_mean_motion_dot": 5.94e-06,
        "meta_mean_motion_ddot": 0,
        "tle_line1": "1 34008U 93036GT  25340.79811240  .00000594  00000+0  22517-3 0  9999",
        "tle_line2": "2 34008  74.0341 341.3777 0024104 337.7332 197.1131 14.33139905878797"
      },
      "geometry": {
        "type": "Point",
        "coordinates": [
          -8.372348454499855,
          34.50213313769514
        ]
      }
    },
    {
      "type": "Feature",
      "properties": {
        "norad_id": 34009,
        "name": "COSMOS 2251 DEB",
        "group": "cosmos-2251-debris",
        "lat": 64.98007254512525,
        "lon": 24.522820809170994,
        "alt_km": 755.8911609079832,
        "timestamp": "2025-12-07T09:35:10.182547+00:00",
        "meta_object_name": "COSMOS 2251 DEB",
        "meta_object_id": "1993-036GU",
        "meta_epoch": "2025-12-06T18:59:04.403616",
        "meta_mean_motion": 14.33215145,
        "meta_eccentricity": 0.00263357,
        "meta_inclination": 74.0371,
        "meta_ra_of_asc_node": 347.8083,
        "meta_arg_of_pericenter": 59.3515,
        "meta_mean_anomaly": 113.2749,
        "meta_ephemeris_type": 0,
        "meta_classification_type": "U",
        "meta_norad_cat_id": 34009,
        "meta_element_set_no": 999,
        "meta_rev_at_epoch": 87860,
        "meta_bstar": 0.00024575887,
        "meta_mean_motion_dot": 6.52e-06,
        "meta_mean_motion_ddot": 0,
        "tle_line1": "1 34009U 93036GU  25340.79102319  .00000652  00000+0  24576-3 0  9992",
        "tle_line2": "2 34009  74.0371 347.8083 0026335  59.3515 113.2749 14.33215145878605"
      },
      "geometry": {
        "type": "Point",
        "coordinates": [
          24.522820809170994,
          64.98007254512525
        ]
      }
    }
  ]
}